{"type": "FeatureCollection", "features": [ {"type": "Feature", "properties": {"norad_id": 66629, "name": "STARLINK-35956", "group": "last-30-days", "lat": 41.48125441951156, "lon": -59.02397466750767, "alt_km": 412.605375142567, "timestamp": "2025-12-17T21:39:44.491127+00:00", "meta": {"OBJECT_NAME": "STARLINK-35956", "OBJECT_ID": "2025-271N", "EPOCH": "2025-12-16T21:54:27.071712", "MEAN_MOTION": 15.49330698, "ECCENTRICITY": 6.346e-05, "INCLINATION": 53.1587, "RA_OF_ASC_NODE": 167.2314, "ARG_OF_PERICENTER": 73.5778, "MEAN_ANOMALY": 286.5301, "EPHEMERIS_TYPE": 0, "CLASSIFICATION_TYPE": "U", "NORAD_CAT_ID": 66629, "ELEMENT_SET_NO": 999, "REV_AT_EPOCH": 485, "BSTAR": 0.0010048732, "MEAN_MOTION_DOT": 0.00055882, "MEAN_MOTION_DDOT": 0}, "tle": {"line1": "1 66629U 25271N   25350.91281333  .00055882  00000+0  10049-2 0  9994", "line2": "2 66629  53.1587 167.2314 0000634  73.5778 286.5301 15.49330698  4854"}}, "geometry": {"type": "Point", "coordinates": [-59.02397466750767, 41.48125441951156]}}, {"type": "Feature", "properties": {"norad_id": 66630, "name": "STARLINK-35949", "group": "last-30-days", "lat": 40.50369769738415, "lon": -57.32838060614725, "alt_km": 412.7342227201043, "timestamp": "2025-12-17T21:39:44.491136+00:00", "meta": {"OBJECT_NAME": "STARLINK-35949", "OBJECT_ID": "2025-271P", "EPOCH": "2025-12-17T13:22:53.425056", "MEAN_MOTION": 15.49304599, "ECCENTRICITY": 0.00012248, "INCLINATION": 53.1597, "RA_OF_ASC_NODE": 164.1445, "ARG_OF_PERICENTER": 81.2087, "MEAN_ANOMALY": 278.9061, "EPHEMERIS_TYPE": 0, "CLASSIFICATION_TYPE": "U", "NORAD_CAT_ID": 66630, "ELEMENT_SET_NO": 999, "REV_AT_EPOCH": 495, "BSTAR": 0.0009717851, "MEAN_MOTION_DOT": 0.00053964, "MEAN_MOTION_DDOT": 0}, "tle": {"line1": "1 66630U 25271P   25351.55756279  .00053964  00000+0  97179-3 0  9992", "line2": "2 66630  53.1597 164.1445 0001224  81.2087 278.9061 15.49304599  4953"}}, "geometry": {"type": "Point", "coordinates": [-57.32838060614725, 40.50369769738415]}}, {"type": "Feature", "properties": {"norad_id": 66631, "name": "STARLINK-35965", "group": "last-30-days", "lat": 39.26395865786089, "lon": -55.30641663132183, "alt_km": 413.38701180427233, "timestamp": "2025-12-17T21:39:44.491145+00:00", "meta": {"OBJECT_NAME": "STARLINK-35965", "OBJECT_ID": "2025-271Q", "EPOCH": "2025-12-17T13:22:23.020896", "MEAN_MOTION": 15.49326062, "ECCENTRICITY": 9.66e-05, "INCLINATION": 53.1591, "RA_OF_ASC_NODE": 164.1431, "ARG_OF_PERICENTER": 43.7277, "MEAN_ANOMALY": 316.3808, "EPHEMERIS_TYPE": 0, "CLASSIFICATION_TYPE": "U", "NORAD_CAT_ID": 66631, "ELEMENT_SET_NO": 999, "REV_AT_EPOCH": 495, "BSTAR": 0.00094503782, "MEAN_MOTION_DOT": 0.00052496, "MEAN_MOTION_DDOT": 0}, "tle": {"line1": "1 66631U 25271Q   25351.55721089  .00052496  00000+0  94504-3 0  9992", "line2": "2 66631  53.1591 164.1431 0000966  43.7277 316.3808 15.49326062  4954"}}, "geometry": {"type": "Point", "coordinates": [-55.30641663132183, 39.26395865786089]}}, {"type": "Feature", "properties": {"norad_id": 66632, "name": "STARLINK-35973", "group": "last-30-days", "lat": 17.418761010218155, "lon": 176.30505948497137, "alt_km": 445.47759120212504, "timestamp": "2025-12-17T21:39:44.491154+00:00", "meta": {"OBJECT_NAME": "STARLINK-35973", "OBJECT_ID": "2025-271R", "EPOCH": "2025-12-17T14:00:03.000384", "MEAN_MOTION": 15.39621364, "ECCENTRICITY": 0.00013952, "INCLINATION": 53.1585, "RA_OF_ASC_NODE": 164.2046, "ARG_OF_PERICENTER": 103.4635, "MEAN_ANOMALY": 308.2387, "EPHEMERIS_TYPE": 0, "CLASSIFICATION_TYPE": "U", "NORAD_CAT_ID": 66632, "ELEMENT_SET_NO": 999, "REV_AT_EPOCH": 496, "BSTAR": 4.594574e-06, "MEAN_MOTION_DOT": -2.16e-06, "MEAN_MOTION_DDOT": 0}, "tle": {"line1": "1 66632U 25271R   25351.58336806 -.00000216  00000+0  45946-5 0  9997", "line2": "2 66632  53.1585 164.2046 0001395 103.4635 308.2387 15.39621364  4965"}}, "geometry": {"type": "Point", "coordinates": [176.30505948497137, 17.418761010218155]}}, {"type": "Feature", "properties": {"norad_id": 66633, "name": "STARLINK-35948", "group": "last-30-days", "lat": 18.83924752540719, "lon": 177.5171035433189, "alt_km": 445.2034970881905, "timestamp": "2025-12-17T21:39:44.491168+00:00", "meta": {"OBJECT_NAME": "STARLINK-35948", "OBJECT_ID": "2025-271S", "EPOCH": "2025-12-17T14:00:03.000384", "MEAN_MOTION": 15.39614094, "ECCENTRICITY": 0.00012049, "INCLINATION": 53.1585, "RA_OF_ASC_NODE": 164.2001, "ARG_OF_PERICENTER": 99.4569, "MEAN_ANOMALY": 314.0799, "EPHEMERIS_TYPE": 0, "CLASSIFICATION_TYPE": "U", "NORAD_CAT_ID": 66633, "ELEMENT_SET_NO": 999, "REV_AT_EPOCH": 502, "BSTAR": 9.8618147e-05, "MEAN_MOTION_DOT": 3.546e-05, "MEAN_MOTION_DDOT": 0}, "tle": {"line1": "1 66633U 25271S   25351.58336806  .00003546  00000+0  98618-4 0  9999", "line2": "2 66633  53.1585 164.2001 0001204  99.4569 314.0799 15.39614094  5028"}}, "geometry": {"type": "Point", "coordinates": [177.5171035433189, 18.83924752540719]}}, {"type": "Feature", "properties": {"norad_id": 66634, "name": "STARLINK-35967", "group": "last-30-days", "lat": 37.4953041701069, "lon": -162.2439985369061, "alt_km": 441.87667791454805, "timestamp": "2025-12-17T21:39:44.491178+00:00", "meta": {"OBJECT_NAME": "STARLINK-35967", "OBJECT_ID": "2025-271T", "EPOCH": "2025-12-17T14:00:03.000384", "MEAN_MOTION": 15.39628661, "ECCENTRICITY": 7.341e-05, "INCLINATION": 53.1595, "RA_OF_ASC_NODE": 164.1477, "ARG_OF_PERICENTER": 63.1397, "MEAN_ANOMALY": 16.0714, "EPHEMERIS_TYPE": 0, "CLASSIFICATION_TYPE": "U", "NORAD_CAT_ID": 66634, "ELEMENT_SET_NO": 999, "REV_AT_EPOCH": 495, "BSTAR": 3.5571427e-05, "MEAN_MOTION_DOT": 1.024e-05, "MEAN_MOTION_DDOT": 0}, "tle": {"line1": "1 66634U 25271T   25351.58336806  .00001024  00000+0  35571-4 0  9998", "line2": "2 66634  53.1595 164.1477 0000734  63.1397  16.0714 15.39628661  4952"}}, "geometry": {"type": "Point", "coordinates": [-162.2439985369061, 37.4953041701069]}}, {"type": "Feature", "properties": {"norad_id": 66635, "name": "STARLINK-35955", "group": "last-30-days", "lat": 51.715709464147835, "lon": -89.234863174304, "alt_km": 438.38503021038105, "timestamp": "2025-12-17T21:39:44.491188+00:00", "meta": {"OBJECT_NAME": "STARLINK-35955", "OBJECT_ID": "2025-271U", "EPOCH": "2025-12-17T14:00:03.000384", "MEAN_MOTION": 15.41713492, "ECCENTRICITY": 0.00013452, "INCLINATION": 53.16, "RA_OF_ASC_NODE": 164.0485, "ARG_OF_PERICENTER": 68.9998, "MEAN_ANOMALY": 60.3591, "EPHEMERIS_TYPE": 0, "CLASSIFICATION_TYPE": "U", "NORAD_CAT_ID": 66635, "ELEMENT_SET_NO": 999, "REV_AT_EPOCH": 502, "BSTAR": -0.064371842, "MEAN_MOTION_DOT": -0.02447323, "MEAN_MOTION_DDOT": 0}, "tle": {"line1": "1 66635U 25271U   25351.58336806 -.02447323  00000+0 -64372-1 0  9997", "line2": "2 66635  53.1600 164.0485 0001345  68.9998  60.3591 15.41713492  5021"}}, "geometry": {"type": "Point", "coordinates": [-89.234863174304, 51.715709464147835]}}, {"type": "Feature", "properties": {"norad_id": 66636, "name": "STARLINK-35968", "group": "last-30-days", "lat": 50.707350087848866, "lon": -131.02856695805792, "alt_km": 440.02413803420404, "timestamp": "2025-12-17T21:39:44.491197+00:00", "meta": {"OBJECT_NAME": "STARLINK-35968", "OBJECT_ID": "2025-271V", "EPOCH": "2025-12-17T14:00:03.000384", "MEAN_MOTION": 15.39593712, "ECCENTRICITY": 8.672e-05, "INCLINATION": 53.1599, "RA_OF_ASC_NODE": 164.0968, "ARG_OF_PERICENTER": 114.4691, "MEAN_ANOMALY": 350.5143, "EPHEMERIS_TYPE": 0, "CLASSIFICATION_TYPE": "U", "NORAD_CAT_ID": 66636, "ELEMENT_SET_NO": 999, "REV_AT_EPOCH": 502, "BSTAR": 0.00025495758, "MEAN_MOTION_DOT": 9.803e-05, "MEAN_MOTION_DDOT": 0}, "tle": {"line1": "1 66636U 25271V   25351.58336806  .00009803  00000+0  25496-3 0  9997", "line2": "2 66636  53.1599 164.0968 0000867 114.4691 350.5143 15.39593712  5025"}}, "geometry": {"type": "Point", "coordinates": [-131.02856695805792, 50.707350087848866]}}, {"type": "Feature", "properties": {"norad_id": 66637, "name": "STARLINK-35953", "group": "last-30-days", "lat": 42.297684806305746, "lon": -60.514152347833814, "alt_km": 431.3203240955245, "timestamp": "2025-12-17T21:39:44.491215+00:00", "meta": {"OBJECT_NAME": "STARLINK-35953", "OBJECT_ID": "2025-271W", "EPOCH": "2025-12-17T14:00:03.000384", "MEAN_MOTION": 15.44364139, "ECCENTRICITY": 0.00013643, "INCLINATION": 53.159, "RA_OF_ASC_NODE": 164.0123, "ARG_OF_PERICENTER": 77.2879, "MEAN_ANOMALY": 70.4089, "EPHEMERIS_TYPE": 0, "CLASSIFICATION_TYPE": "U", "NORAD_CAT_ID": 66637, "ELEMENT_SET_NO": 999, "REV_AT_EPOCH": 502, "BSTAR": -0.050208046, "MEAN_MOTION_DOT": -0.02087894, "MEAN_MOTION_DDOT": 0}, "tle": {"line1": "1 66637U 25271W   25351.58336806 -.02087894  00000+0 -50208-1 0  9995", "line2": "2 66637  53.1590 164.0123 0001364  77.2879  70.4089 15.44364139  5029"}}, "geometry": {"type": "Point", "coordinates": [-60.514152347833814, 42.297684806305746]}}, {"type": "Feature", "properties": {"norad_id": 66638, "name": "STARLINK-35972", "group": "last-30-days", "lat": 30.103863433314906, "lon": -43.303093170878185, "alt_km": 414.85160072128474, "timestamp": "2025-12-17T21:39:44.491225+00:00", "meta": {"OBJECT_NAME": "STARLINK-35972", "OBJECT_ID": "2025-271X", "EPOCH": "2025-12-17T13:18:55.266048", "MEAN_MOTION": 15.49336072, "ECCENTRICITY": 0.00010961, "INCLINATION": 53.1592, "RA_OF_ASC_NODE": 164.1253, "ARG_OF_PERICENTER": 51.5833, "MEAN_ANOMALY": 308.5275, "EPHEMERIS_TYPE": 0, "CLASSIFICATION_TYPE": "U", "NORAD_CAT_ID": 66638, "ELEMENT_SET_NO": 999, "REV_AT_EPOCH": 495, "BSTAR": 0.0012564551, "MEAN_MOTION_DOT": 0.00070127, "MEAN_MOTION_DDOT": 0}, "tle": {"line1": "1 66638U 25271X   25351.55480632  .00070127  00000+0  12565-2 0  9992", "line2": "2 66638  53.1592 164.1253 0001096  51.5833 308.5275 15.49336072  4957"}}, "geometry": {"type": "Point", "coordinates": [-43.303093170878185, 30.103863433314906]}}]}